SatCatId,ObjectName,LaunchYear,OrbitalPeriod,LaunchMass,StatusCode,Inclination,Status,UcsData,OrbitClassEstimated,LaunchSiteCountry,Owner,UseType,Purpose,LaunchVehicleClass,TLE1,TLE2,MeanMotion,Eccentricity,OrbitClass
53708,STARLINK-4694,2022,95.44,260.0,+,53.22,Active,1,LEO,USA,USA,Commercial,Communications,Falcon,1 53708U 22107J   23275.66343165  .00000784  00000+0  67378-4 0  9991,2 53708  53.2165 259.9828 0001486  89.5217 270.5945 15.08836684 60851,15.08836684,0.0001486,LEO
53709,STARLINK-4685,2022,95.44,260.0,+,53.22,Active,1,LEO,USA,USA,Commercial,Communications,Falcon,1 53709U 22107K   23275.71677005 -.00000238  00000+0  31519-5 0  9995,2 53709  53.2155 279.5690 0002166  61.4678 298.6532 15.08837697 60276,15.08837697,0.0002166,LEO
53711,STARLINK-4627,2022,95.44,260.0,+,53.22,Active,1,LEO,USA,USA,Commercial,Communications,Falcon,1 53711U 22107M   23276.19150447  .00001328  00000+0  10152-3 0  9995,2 53711  53.2171 277.5476 0001546  93.9729 266.1440 15.08838013 59904,15.08838013,0.0001546,LEO
53712,STARLINK-4683,2022,95.44,260.0,+,53.22,Active,1,LEO,USA,USA,Commercial,Communications,Falcon,1 53712U 22107N   23276.29818833  .00002063  00000+0  14765-3 0  9998,2 53712  53.2168 276.8099 0001583  95.6418 264.4755 15.08839739 59927,15.08839739,0.0001583,LEO
53713,STARLINK-4698,2022,95.44,260.0,+,53.22,Active,1,LEO,USA,USA,Commercial,Communications,Falcon,1 53713U 22107P   23276.30693331  .00004529  00000+0  30237-3 0  9996,2 53713  53.2151 281.8235 0001634  88.3893 271.7286 15.08849229 59858,15.08849229,0.0001634,LEO
53714,STARLINK-4688,2022,95.44,260.0,+,53.22,Active,1,LEO,USA,USA,Commercial,Communications,Falcon,1 53714U 22107Q   23276.18598274  .00003168  00000+0  21703-3 0  9999,2 53714  53.2164 257.5474 0001664 104.4474 255.6703 15.08841362 60189,15.08841362,0.0001664,LEO
53715,STARLINK-4686,2022,95.44,260.0,+,53.22,Active,1,LEO,USA,USA,Commercial,Communications,Falcon,1 53715U 22107R   23276.18551476  .00003998  00000+0  26916-3 0  9995,2 53715  53.2153 282.4868 0001676  96.4206 263.6977 15.08841756 59826,15.08841756,0.0001676,LEO
53716,STARLINK-4699,2022,95.44,260.0,+,53.22,Active,1,LEO,USA,USA,Commercial,Communications,Falcon,1 53716U 22107S   23276.18182651  .00001567  00000+0  11654-3 0  9994,2 53716  53.2164 282.4659 0001601 103.2185 256.8985 15.08839696 59821,15.08839696,0.0001601,LEO
53718,STARLINK-4695,2022,95.54,260.0,+,53.21,Active,1,LEO,USA,USA,Commercial,Communications,Falcon,1 53718U 22107U   23275.72408141 -.00000785  00000+0 -32948-4 0  9993,2 53718  53.2165 284.5825 0001611  93.4687 266.6489 15.07204060 60202,15.0720406,0.0001611,LEO
53719,STARLINK-4644,2022,95.44,260.0,+,53.22,Active,1,LEO,USA,USA,Commercial,Communications,Falcon,1 53719U 22107V   23276.37225557  .00004040  00000+0  27172-3 0  9992,2 53719  53.2169 251.5559 0001473 102.5693 257.5463 15.08850086 60263,15.08850086,0.0001473,LEO
53720,STARLINK-4642,2022,95.44,260.0,+,53.22,Active,1,LEO,USA,USA,Commercial,Communications,Falcon,1 53720U 22107W   23276.18919721  .00002561  00000+0  17896-3 0  9994,2 53720  53.2162 282.5134 0001649  93.0733 267.0448 15.08838265 59829,15.08838265,0.0001649,LEO
53721,STARLINK-4707,2022,95.44,260.0,+,53.22,Active,1,LEO,USA,USA,Commercial,Communications,Falcon,1 53721U 22107X   23276.19656711  .00002404  00000+0  16908-3 0  9992,2 53721  53.2163 282.5565 0001633  99.7781 260.3395 15.08841607 59829,15.08841607,0.0001633,LEO
53722,STARLINK-4700,2022,95.44,260.0,+,53.22,Active,1,LEO,USA,USA,Commercial,Communications,Falcon,1 53722U 22107Y   23276.20393607  .00002811  00000+0  19462-3 0  9997,2 53722  53.2164 282.5988 0001697  96.3246 263.7939 15.08839455 59828,15.08839455,0.0001697,LEO
53723,STARLINK-4705,2022,95.44,260.0,+,53.22,Active,1,LEO,USA,USA,Commercial,Communications,Falcon,1 53723U 22107Z   23276.50933885  .00004931  00000+0  32758-3 0  9997,2 53723  53.2163 280.9604 0001669  96.0413 264.0770 15.08850011 59870,15.08850011,0.0001669,LEO
53724,STARLINK-4663,2022,95.44,260.0,+,53.22,Active,1,LEO,USA,USA,Commercial,Communications,Falcon,1 53724U 22107AA  23276.45785120  .00015200  00000+0  97204-3 0  9997,2 53724  53.2173 281.3450 0002051  97.7999 262.3226 15.08801792 59867,15.08801792,0.0002051,LEO
53726,STARLINK-4697,2022,95.44,260.0,+,53.22,Active,1,LEO,USA,USA,Commercial,Communications,Falcon,1 53726U 22107AC  23276.20026201  .00000713  00000+0  62884-4 0  9990,2 53726  53.2178 282.5794 0001736  99.1193 260.9996 15.08828514 59824,15.08828514,0.0001736,LEO
53727,STARLINK-4701,2022,95.44,260.0,+,53.22,Active,1,LEO,USA,USA,Commercial,Communications,Falcon,1 53727U 22107AD  23276.21130623  .00002278  00000+0  16115-3 0  9999,2 53727  53.2191 282.6483 0001661  92.1288 267.9895 15.08840902 59821,15.08840902,0.0001661,LEO
53728,STARLINK-4640,2022,95.44,260.0,+,53.22,Active,1,LEO,USA,USA,Commercial,Communications,Falcon,1 53728U 22107AE  23276.20762368  .00002037  00000+0  14604-3 0  9990,2 53728  53.2184 282.6249 0001859  91.1314 268.9891 15.08838829 59824,15.08838829,0.0001859,LEO
53729,STARLINK-4651,2022,95.44,260.0,+,53.22,Active,1,LEO,USA,USA,Commercial,Communications,Falcon,1 53729U 22107AF  23276.28859851  .00002601  00000+0  18144-3 0  9993,2 53729  53.2158 282.4190 0001575  96.7026 263.4146 15.08845338 59832,15.08845338,0.0001575,LEO
53730,STARLINK-4641,2022,95.44,260.0,+,53.22,Active,1,LEO,USA,USA,Commercial,Communications,Falcon,1 53730U 22107AG  23276.28123370  .00003046  00000+0  20938-3 0  9993,2 53730  53.2172 282.3745 0001677  92.5746 267.5439 15.08840343 59832,15.08840343,0.0001677,LEO
53731,STARLINK-4636,2022,95.44,260.0,+,53.22,Active,1,LEO,USA,USA,Commercial,Communications,Falcon,1 53731U 22107AH  23276.02732768  .00002973  00000+0  20483-3 0  9996,2 53731  53.2154 283.6316 0001579  93.1974 266.9199 15.08838457 59796,15.08838457,0.0001579,LEO
53732,STARLINK-4661,2022,95.44,260.0,+,53.22,Active,1,LEO,USA,USA,Commercial,Communications,Falcon,1 53732U 22107AJ  23275.75595657  .00009972  00000+0  64357-3 0  9994,2 53732  53.2152 284.7807 0001516  89.9649 270.1517 15.08849050 60351,15.0884905,0.0001516,LEO
53733,STARLINK-4574,2022,95.44,260.0,+,53.22,Active,1,LEO,USA,USA,Commercial,Communications,Falcon,1 53733U 22107AK  23276.29964619  .00001424  00000+0  10752-3 0  9997,2 53733  53.2161 282.4876 0001579  93.4382 266.6791 15.08849004 59830,15.08849004,0.0001579,LEO
53734,STARLINK-4616,2022,95.44,260.0,+,53.22,Active,1,LEO,USA,USA,Commercial,Communications,Falcon,1 53734U 22107AL  23275.75499328  .00000403  00000+0  43407-4 0  9998,2 53734  53.2170 284.7772 0001507  83.3320 276.7843 15.08842459 60381,15.08842459,0.0001507,LEO
53735,STARLINK-4618,2022,95.44,260.0,+,53.22,Active,1,LEO,USA,USA,Commercial,Communications,Falcon,1 53735U 22107AM  23276.46060157  .00004204  00000+0  28201-3 0  9999,2 53735  53.2156 291.3484 0001695  90.6475 269.4712 15.08846222 59722,15.08846222,0.0001695,LEO
53736,STARLINK-4652,2022,95.44,260.0,+,53.22,Active,1,LEO,USA,USA,Commercial,Communications,Falcon,1 53736U 22107AN  23276.49470002  .00004557  00000+0  30417-3 0  9990,2 53736  53.2163 281.5736 0001771  90.3731 269.7464 15.08844763 59869,15.08844763,0.0001771,LEO
53737,STARLINK-4646,2022,95.44,260.0,+,53.22,Active,1,LEO,USA,USA,Commercial,Communications,Falcon,1 53737U 22107AP  23275.33820621 -.00000460  00000+0 -10788-4 0  9990,2 53737  53.2157 296.4274 0001529  86.3128 273.8039 15.08840866 60339,15.08840866,0.0001529,LEO
53738,STARLINK-4662,2022,95.44,260.0,+,53.22,Active,1,LEO,USA,USA,Commercial,Communications,Falcon,1 53738U 22107AQ  23276.19195906  .00004067  00000+0  27348-3 0  9991,2 53738  53.2158 292.5143 0001715  84.7918 275.3270 15.08842847 59680,15.08842847,0.0001715,LEO
53740,STARLINK-4607,2022,95.44,260.0,+,53.22,Active,1,LEO,USA,USA,Commercial,Communications,Falcon,1 53740U 22107AS  23276.20301400  .00003002  00000+0  20663-3 0  9995,2 53740  53.2154 292.5839 0001629  90.5020 269.6158 15.08842294 59681,15.08842294,0.0001629,LEO
53741,STARLINK-4614,2022,95.44,260.0,+,53.22,Active,1,LEO,USA,USA,Commercial,Communications,Falcon,1 53741U 22107AT  23276.18142013 -.00000625  00000+0 -21147-4 0  9995,2 53741  53.2167 277.5610 0001651  99.1003 261.0176 15.08834625 59895,15.08834625,0.0001651,LEO
53742,STARLINK-4637,2022,95.44,260.0,+,53.22,Active,1,LEO,USA,USA,Commercial,Communications,Falcon,1 53742U 22107AU  23276.20669721  .00002968  00000+0  20452-3 0  9996,2 53742  53.2158 292.6085 0001636  83.2845 276.8333 15.08840554 59685,15.08840554,0.0001636,LEO
53743,STARLINK-4645,2022,95.44,260.0,+,53.22,Active,1,LEO,USA,USA,Commercial,Communications,Falcon,1 53743U 22107AV  23276.48639464  .00007891  00000+0  51315-3 0  9990,2 53743  53.2161 291.5080 0001694  86.0793 274.0393 15.08853757 59720,15.08853757,0.0001694,LEO
53744,STARLINK-4670,2022,95.33,260.0,+,53.22,Active,1,LEO,USA,USA,Commercial,Communications,Falcon,1 53744U 22107AW  23276.50906339 -.00019093  00000+0 -11370-2 0  9997,2 53744  53.2172 290.9475 0001380 102.0362 258.0785 15.10326618 59739,15.10326618,0.000138,LEO
53745,STARLINK-4656,2022,95.44,260.0,+,53.22,Active,1,LEO,USA,USA,Commercial,Communications,Falcon,1 53745U 22107AX  23276.35760832  .00006537  00000+0  42818-3 0  9996,2 53745  53.2157 292.1259 0001661  98.1637 261.9543 15.08862314 59706,15.08862314,0.0001661,LEO
53746,STARLINK-4589,2022,95.44,260.0,+,53.22,Active,1,LEO,USA,USA,Commercial,Communications,Falcon,1 53746U 22107AY  23276.41647404  .00005227  00000+0  34619-3 0  9998,2 53746  53.2159 291.7828 0001633  98.0141 262.1037 15.08844177 59713,15.08844177,0.0001633,LEO
53748,STARLINK-4669,2022,95.44,260.0,+,53.22,Active,1,LEO,USA,USA,Commercial,Communications,Falcon,1 53748U 22107BA  23276.03008977  .00002178  00000+0  15495-3 0  9997,2 53748  53.2166 293.6351 0001660  98.0937 262.0243 15.08834036 59652,15.08834036,0.000166,LEO
